{"fetched_at":"2026-07-23T07:05:18.920Z","source":"https://celestrak.org/NORAD/elements/gp.php?GROUP=oneweb&FORMAT=JSON","constellation":"oneweb","records":[{"OBJECT_NAME":"ONEWEB-0403","OBJECT_ID":"2021-132Q","EPOCH":"2026-07-22T07:48:03.886272","CLASSIFICATION_TYPE":"U","MEAN_MOTION":13.18686626,"ECCENTRICITY":0.00017936,"INCLINATION":87.9204,"RA_OF_ASC_NODE":328.4705,"ARG_OF_PERICENTER":95.9919,"MEAN_ANOMALY":264.1417,"EPHEMERIS_TYPE":0,"NORAD_CAT_ID":50483,"ELEMENT_SET_NO":999,"REV_AT_EPOCH":22622,"BSTAR":0.000082893468,"MEAN_MOTION_DOT":4.6e-7,"MEAN_MOTION_DDOT":0},{"OBJECT_NAME":"ONEWEB-0404","OBJECT_ID":"2021-132R","EPOCH":"2026-07-22T17:35:48.336576","CLASSIFICATION_TYPE":"U","MEAN_MOTION":13.11416835,"ECCENTRICITY":0.00017116,"INCLINATION":87.8892,"RA_OF_ASC_NODE":13.9896,"ARG_OF_PERICENTER":82.1845,"MEAN_ANOMALY":277.9477,"EPHEMERIS_TYPE":0,"NORAD_CAT_ID":50484,"ELEMENT_SET_NO":999,"REV_AT_EPOCH":22035,"BSTAR":-0.0013243651,"MEAN_MOTION_DOT":-0.00000457,"MEAN_MOTION_DDOT":0},{"OBJECT_NAME":"ONEWEB-0405","OBJECT_ID":"2021-132S","EPOCH":"2026-07-22T19:03:04.053888","CLASSIFICATION_TYPE":"U","MEAN_MOTION":13.18685673,"ECCENTRICITY":0.0002298,"INCLINATION":87.9202,"RA_OF_ASC_NODE":328.3629,"ARG_OF_PERICENTER":93.2727,"MEAN_ANOMALY":266.8669,"EPHEMERIS_TYPE":0,"NORAD_CAT_ID":50485,"ELEMENT_SET_NO":999,"REV_AT_EPOCH":22668,"BSTAR":-0.000044481493,"MEAN_MOTION_DOT":-5e-8,"MEAN_MOTION_DDOT":0},{"OBJECT_NAME":"ONEWEB-0406","OBJECT_ID":"2021-132T","EPOCH":"2026-07-22T18:50:54.686688","CLASSIFICATION_TYPE":"U","MEAN_MOTION":13.18686926,"ECCENTRICITY":0.00015321,"INCLINATION":87.9202,"RA_OF_ASC_NODE":328.3785,"ARG_OF_PERICENTER":83.3875,"MEAN_ANOMALY":276.7432,"EPHEMERIS_TYPE":0,"NORAD_CAT_ID":50486,"ELEMENT_SET_NO":999,"REV_AT_EPOCH":22631,"BSTAR":-0.000055974131,"MEAN_MOTION_DOT":-9e-8,"MEAN_MOTION_DDOT":0},{"OBJECT_NAME":"ONEWEB-0407","OBJECT_ID":"2021-132U","EPOCH":"2026-07-22T18:41:11.849568","CLASSIFICATION_TYPE":"U","MEAN_MOTION":13.18684365,"ECCENTRICITY":0.00020317,"INCLINATION":87.9205,"RA_OF_ASC_NODE":328.3734,"ARG_OF_PERICENTER":103.7985,"MEAN_ANOMALY":256.3373,"EPHEMERIS_TYPE":0,"NORAD_CAT_ID":50487,"ELEMENT_SET_NO":999,"REV_AT_EPOCH":22625,"BSTAR":-0.000068389592,"MEAN_MOTION_DOT":-1.4e-7,"MEAN_MOTION_DDOT":0},{"OBJECT_NAME":"ONEWEB-0409","OBJECT_ID":"2021-132V","EPOCH":"2026-07-22T17:33:22.034592","CLASSIFICATION_TYPE":"U","MEAN_MOTION":13.11416942,"ECCENTRICITY":0.00017855,"INCLINATION":87.8896,"RA_OF_ASC_NODE":13.9796,"ARG_OF_PERICENTER":82.8057,"MEAN_ANOMALY":277.3274,"EPHEMERIS_TYPE":0,"NORAD_CAT_ID":50488,"ELEMENT_SET_NO":999,"REV_AT_EPOCH":22024,"BSTAR":-0.0014941567,"MEAN_MOTION_DOT":-0.00000517,"MEAN_MOTION_DDOT":0},{"OBJECT_NAME":"ONEWEB-0412","OBJECT_ID":"2021-132W","EPOCH":"2026-07-22T18:24:12.489408","CLASSIFICATION_TYPE":"U","MEAN_MOTION":13.1868633,"ECCENTRICITY":0.00017588,"INCLINATION":87.92,"RA_OF_ASC_NODE":328.3833,"ARG_OF_PERICENTER":108.5998,"MEAN_ANOMALY":251.5326,"EPHEMERIS_TYPE":0,"NORAD_CAT_ID":50489,"ELEMENT_SET_NO":999,"REV_AT_EPOCH":22634,"BSTAR":-0.000026200527,"MEAN_MOTION_DOT":3e-8,"MEAN_MOTION_DDOT":0},{"OBJECT_NAME":"ONEWEB-0413","OBJECT_ID":"2021-132X","EPOCH":"2026-07-22T18:31:29.484192","CLASSIFICATION_TYPE":"U","MEAN_MOTION":13.18684699,"ECCENTRICITY":0.00019335,"INCLINATION":87.9194,"RA_OF_ASC_NODE":328.3781,"ARG_OF_PERICENTER":108.1902,"MEAN_ANOMALY":251.9441,"EPHEMERIS_TYPE":0,"NORAD_CAT_ID":50490,"ELEMENT_SET_NO":999,"REV_AT_EPOCH":22628,"BSTAR":0.00010623327,"MEAN_MOTION_DOT":5.5e-7,"MEAN_MOTION_DDOT":0},{"OBJECT_NAME":"ONEWEB-0414","OBJECT_ID":"2021-132Y","EPOCH":"2026-07-22T14:31:06.634560","CLASSIFICATION_TYPE":"U","MEAN_MOTION":13.18687425,"ECCENTRICITY":0.00017471,"INCLINATION":87.9204,"RA_OF_ASC_NODE":328.3968,"ARG_OF_PERICENTER":102.1304,"MEAN_ANOMALY":258.0024,"EPHEMERIS_TYPE":0,"NORAD_CAT_ID":50491,"ELEMENT_SET_NO":999,"REV_AT_EPOCH":22629,"BSTAR":0.00020345385,"MEAN_MOTION_DOT":9.3e-7,"MEAN_MOTION_DDOT":0},{"OBJECT_NAME":"ONEWEB-0417","OBJECT_ID":"2021-132Z","EPOCH":"2026-07-22T18:21:46.863072","CLASSIFICATION_TYPE":"U","MEAN_MOTION":13.18684927,"ECCENTRICITY":0.00017721,"INCLINATION":87.9197,"RA_OF_ASC_NODE":328.3817,"ARG_OF_PERICENTER":92.8424,"MEAN_ANOMALY":267.2911,"EPHEMERIS_TYPE":0,"NORAD_CAT_ID":50492,"ELEMENT_SET_NO":999,"REV_AT_EPOCH":22629,"BSTAR":-0.000098731859,"MEAN_MOTION_DOT":-2.6e-7,"MEAN_MOTION_DDOT":0},{"OBJECT_NAME":"ONEWEB-0418","OBJECT_ID":"2021-132AA","EPOCH":"2026-07-22T18:36:09.073728","CLASSIFICATION_TYPE":"U","MEAN_MOTION":13.18685366,"ECCENTRICITY":0.0001783,"INCLINATION":87.9197,"RA_OF_ASC_NODE":328.3811,"ARG_OF_PERICENTER":91.8314,"MEAN_ANOMALY":268.3022,"EPHEMERIS_TYPE":0,"NORAD_CAT_ID":50493,"ELEMENT_SET_NO":999,"REV_AT_EPOCH":22635,"BSTAR":-0.000014346372,"MEAN_MOTION_DOT":7e-8,"MEAN_MOTION_DDOT":0},{"OBJECT_NAME":"ONEWEB-0419","OBJECT_ID":"2021-132AB","EPOCH":"2026-07-22T19:03:42.799104","CLASSIFICATION_TYPE":"U","MEAN_MOTION":13.18665868,"ECCENTRICITY":0.00020289,"INCLINATION":87.92,"RA_OF_ASC_NODE":328.3785,"ARG_OF_PERICENTER":92.1794,"MEAN_ANOMALY":267.9571,"EPHEMERIS_TYPE":0,"NORAD_CAT_ID":50494,"ELEMENT_SET_NO":999,"REV_AT_EPOCH":22627,"BSTAR":-0.000069802131,"MEAN_MOTION_DOT":-1.5e-7,"MEAN_MOTION_DDOT":0},{"OBJECT_NAME":"ONEWEB-0420","OBJECT_ID":"2021-132AC","EPOCH":"2026-07-22T07:16:29.516160","CLASSIFICATION_TYPE":"U","MEAN_MOTION":13.18684623,"ECCENTRICITY":0.00020593,"INCLINATION":87.9194,"RA_OF_ASC_NODE":328.476,"ARG_OF_PERICENTER":102.7626,"MEAN_ANOMALY":257.3736,"EPHEMERIS_TYPE":0,"NORAD_CAT_ID":50495,"ELEMENT_SET_NO":999,"REV_AT_EPOCH":22620,"BSTAR":0.00020469672,"MEAN_MOTION_DOT":9.4e-7,"MEAN_MOTION_DDOT":0},{"OBJECT_NAME":"ONEWEB-0421","OBJECT_ID":"2021-132AD","EPOCH":"2026-07-22T14:23:51.029088","CLASSIFICATION_TYPE":"U","MEAN_MOTION":13.18686843,"ECCENTRICITY":0.00015887,"INCLINATION":87.9199,"RA_OF_ASC_NODE":328.4154,"ARG_OF_PERICENTER":106.2208,"MEAN_ANOMALY":253.9099,"EPHEMERIS_TYPE":0,"NORAD_CAT_ID":50496,"ELEMENT_SET_NO":999,"REV_AT_EPOCH":22628,"BSTAR":0.00020338756,"MEAN_MOTION_DOT":9.3e-7,"MEAN_MOTION_DDOT":0},{"OBJECT_NAME":"ONEWEB-0424","OBJECT_ID":"2021-132AE","EPOCH":"2026-07-22T08:00:12.108672","CLASSIFICATION_TYPE":"U","MEAN_MOTION":13.18686989,"ECCENTRICITY":0.00021448,"INCLINATION":87.9204,"RA_OF_ASC_NODE":328.468,"ARG_OF_PERICENTER":92.1745,"MEAN_ANOMALY":267.9633,"EPHEMERIS_TYPE":0,"NORAD_CAT_ID":50497,"ELEMENT_SET_NO":999,"REV_AT_EPOCH":22627,"BSTAR":0.000053969498,"MEAN_MOTION_DOT":3.4e-7,"MEAN_MOTION_DDOT":0},{"OBJECT_NAME":"ONEWEB-0426","OBJECT_ID":"2021-132AF","EPOCH":"2026-07-22T07:00:41.824800","CLASSIFICATION_TYPE":"U","MEAN_MOTION":13.18680821,"ECCENTRICITY":0.00013672,"INCLINATION":87.9205,"RA_OF_ASC_NODE":328.4669,"ARG_OF_PERICENTER":88.3082,"MEAN_ANOMALY":271.8207,"EPHEMERIS_TYPE":0,"NORAD_CAT_ID":50498,"ELEMENT_SET_NO":999,"REV_AT_EPOCH":22621,"BSTAR":0.0027482288,"MEAN_MOTION_DOT":0.00001096,"MEAN_MOTION_DDOT":0}]}
